EUTELSAT QUANTUM        
1 49056U 21069B   25220.55196272  .00000129  00000+0  00000+0 0  9990
2 49056   0.0582 276.7572 0002143 231.9905  54.9541  1.00270092 14796
EUTELSAT KONNECT VHTS   
1 53765U 22110A   25219.32962054  .00000021  00000+0  00000+0 0  9993
2 53765   0.0564  99.3412 0002862  28.0218 310.1108  1.00268236 10643
EUTELSAT HOTBIRD 13F    
1 54048U 22134A   25220.54513663  .00000089  00000+0  00000+0 0  9992
2 54048   0.0619 280.9863 0001869  83.1746 162.3741  1.00269475 10243
EUTELSAT HOTBIRD 13G    
1 54225U 22146A   25220.54513663  .00000090  00000+0  00000+0 0  9994
2 54225   0.0568 249.2619 0002148 288.9810 348.3031  1.00271213  4332
EUTELSAT 10B            
1 54259U 22157A   25220.54452995  .00000071  00000+0  00000+0 0  9992
2 54259   0.0488  96.8951 0001673  22.1904  44.2557  1.00269521  9888
EUTELSAT 36D            
1 59346U 24059A   25220.47815811  .00000158  00000+0  00000+0 0  9995
2 59346   0.0185  93.4478 0000388  45.2056  26.5589  1.00271459  5019
